{"type": "FeatureCollection", "features": [ {"type": "Feature", "properties": {"norad_id": 30481, "name": "FENGYUN 1C DEB", "group": "fengyun-1c-debris", "lat": -71.01282175054756, "lon": 41.59516372105228, "alt_km": 699.5549498394157, "timestamp": "2025-12-25T09:48:52.566916+00:00", "meta": {"OBJECT_NAME": "FENGYUN 1C DEB", "OBJECT_ID": "1999-025AGT", "EPOCH": "2025-12-24T19:58:22.227744", "MEAN_MOTION": 14.39083362, "ECCENTRICITY": 0.02232556, "INCLINATION": 98.3365, "RA_OF_ASC_NODE": 15.8103, "ARG_OF_PERICENTER": 223.4745, "MEAN_ANOMALY": 315.1862, "EPHEMERIS_TYPE": 0, "CLASSIFICATION_TYPE": "U", "NORAD_CAT_ID": 30481, "ELEMENT_SET_NO": 999, "REV_AT_EPOCH": 98657, "BSTAR": 0.00042327917, "MEAN_MOTION_DOT": 1.699e-05, "MEAN_MOTION_DDOT": 0}, "tle": {"line1": "1 30481U 99025AGT 25358.83220171  .00001699  00000+0  42328-3 0  9994", "line2": "2 30481  98.3365  15.8103 0223255 223.4745 315.1862 14.39083362986576"}}, "geometry": {"type": "Point", "coordinates": [41.59516372105228, -71.01282175054756]}}, {"type": "Feature", "properties": {"norad_id": 30489, "name": "FENGYUN 1C DEB", "group": "fengyun-1c-debris", "lat": 20.608867830128773, "lon": -163.10879073598068, "alt_km": 802.5775981465895, "timestamp": "2025-12-25T09:48:52.566926+00:00", "meta": {"OBJECT_NAME": "FENGYUN 1C DEB", "OBJECT_ID": "1999-025AHB", "EPOCH": "2025-12-24T07:41:26.606976", "MEAN_MOTION": 14.15833508, "ECCENTRICITY": 0.0139181, "INCLINATION": 98.468, "RA_OF_ASC_NODE": 12.6448, "ARG_OF_PERICENTER": 231.4388, "MEAN_ANOMALY": 144.1697, "EPHEMERIS_TYPE": 0, "CLASSIFICATION_TYPE": "U", "NORAD_CAT_ID": 30489, "ELEMENT_SET_NO": 999, "REV_AT_EPOCH": 97551, "BSTAR": 0.00023443415, "MEAN_MOTION_DOT": 4.64e-06, "MEAN_MOTION_DDOT": 0}, "tle": {"line1": "1 30489U 99025AHB 25358.32044684  .00000464  00000+0  23443-3 0  9995", "line2": "2 30489  98.4680  12.6448 0139181 231.4388 144.1697 14.15833508975515"}}, "geometry": {"type": "Point", "coordinates": [-163.10879073598068, 20.608867830128773]}}, {"type": "Feature", "properties": {"norad_id": 30490, "name": "FENGYUN 1C DEB", "group": "fengyun-1c-debris", "lat": 70.72378184558472, "lon": -22.6522068014047, "alt_km": 441.0978599629043, "timestamp": "2025-12-25T09:48:52.566936+00:00", "meta": {"OBJECT_NAME": "FENGYUN 1C DEB", "OBJECT_ID": "1999-025AHC", "EPOCH": "2025-12-24T20:48:06.136416", "MEAN_MOTION": 15.30913801, "ECCENTRICITY": 0.0045298, "INCLINATION": 98.3285, "RA_OF_ASC_NODE": 131.9755, "ARG_OF_PERICENTER": 72.2316, "MEAN_ANOMALY": 288.3858, "EPHEMERIS_TYPE": 0, "CLASSIFICATION_TYPE": "U", "NORAD_CAT_ID": 30490, "ELEMENT_SET_NO": 999, "REV_AT_EPOCH": 99681, "BSTAR": 0.0036604445, "MEAN_MOTION_DOT": 0.00114283, "MEAN_MOTION_DDOT": 0}, "tle": {"line1": "1 30490U 99025AHC 25358.86673769  .00114283  00000+0  36604-2 0  9995", "line2": "2 30490  98.3285 131.9755 0045298  72.2316 288.3858 15.30913801996819"}}, "geometry": {"type": "Point", "coordinates": [-22.6522068014047, 70.72378184558472]}}, {"type": "Feature", "properties": {"norad_id": 30492, "name": "FENGYUN 1C DEB", "group": "fengyun-1c-debris", "lat": 50.783652393289245, "lon": -141.9533587548021, "alt_km": 723.1854609170541, "timestamp": "2025-12-25T09:48:52.566945+00:00", "meta": {"OBJECT_NAME": "FENGYUN 1C DEB", "OBJECT_ID": "1999-025AHE", "EPOCH": "2025-12-24T20:00:30.931776", "MEAN_MOTION": 14.52142116, "ECCENTRICITY": 0.00941129, "INCLINATION": 102.325, "RA_OF_ASC_NODE": 21.6653, "ARG_OF_PERICENTER": 30.3501, "MEAN_ANOMALY": 330.3082, "EPHEMERIS_TYPE": 0, "CLASSIFICATION_TYPE": "U", "NORAD_CAT_ID": 30492, "ELEMENT_SET_NO": 999, "REV_AT_EPOCH": 97070, "BSTAR": 0.0031444897, "MEAN_MOTION_DOT": 0.00013444, "MEAN_MOTION_DDOT": 0}, "tle": {"line1": "1 30492U 99025AHE 25358.83369134  .00013444  00000+0  31445-2 0  9997", "line2": "2 30492 102.3250  21.6653 0094112  30.3501 330.3082 14.52142116970704"}}, "geometry": {"type": "Point", "coordinates": [-141.9533587548021, 50.783652393289245]}}, {"type": "Feature", "properties": {"norad_id": 30493, "name": "FENGYUN 1C DEB", "group": "fengyun-1c-debris", "lat": -78.16605087310604, "lon": -125.14897522355668, "alt_km": 937.7760481576925, "timestamp": "2025-12-25T09:48:52.566955+00:00", "meta": {"OBJECT_NAME": "FENGYUN 1C DEB", "OBJECT_ID": "1999-025AHF", "EPOCH": "2025-12-23T00:20:27.661056", "MEAN_MOTION": 13.93041001, "ECCENTRICITY": 0.0180713, "INCLINATION": 98.5711, "RA_OF_ASC_NODE": 186.5959, "ARG_OF_PERICENTER": 188.3454, "MEAN_ANOMALY": 324.8864, "EPHEMERIS_TYPE": 0, "CLASSIFICATION_TYPE": "U", "NORAD_CAT_ID": 30493, "ELEMENT_SET_NO": 999, "REV_AT_EPOCH": 95238, "BSTAR": 0.0025683713, "MEAN_MOTION_DOT": 3.782e-05, "MEAN_MOTION_DDOT": 0}, "tle": {"line1": "1 30493U 99025AHF 25357.01420904  .00003782  00000+0  25684-2 0  9992", "line2": "2 30493  98.5711 186.5959 0180713 188.3454 324.8864 13.93041001952382"}}, "geometry": {"type": "Point", "coordinates": [-125.14897522355668, -78.16605087310604]}}, {"type": "Feature", "properties": {"norad_id": 30494, "name": "FENGYUN 1C DEB", "group": "fengyun-1c-debris", "lat": -62.15251630000128, "lon": 52.57217227483138, "alt_km": 1012.292885371382, "timestamp": "2025-12-25T09:48:52.566965+00:00", "meta": {"OBJECT_NAME": "FENGYUN 1C DEB", "OBJECT_ID": "1999-025AHG", "EPOCH": "2025-12-20T20:27:26.731008", "MEAN_MOTION": 13.79394652, "ECCENTRICITY": 0.0186172, "INCLINATION": 99.2815, "RA_OF_ASC_NODE": 30.0747, "ARG_OF_PERICENTER": 200.8117, "MEAN_ANOMALY": 158.5384, "EPHEMERIS_TYPE": 0, "CLASSIFICATION_TYPE": "U", "NORAD_CAT_ID": 30494, "ELEMENT_SET_NO": 999, "REV_AT_EPOCH": 94598, "BSTAR": 0.0010376, "MEAN_MOTION_DOT": 1.17e-05, "MEAN_MOTION_DDOT": 0}, "tle": {"line1": "1 30494U 99025AHG 25354.85239272  .00001170  00000+0  10376-2 0  9999", "line2": "2 30494  99.2815  30.0747 0186172 200.8117 158.5384 13.79394652945989"}}, "geometry": {"type": "Point", "coordinates": [52.57217227483138, -62.15251630000128]}}, {"type": "Feature", "properties": {"norad_id": 30495, "name": "FENGYUN 1C DEB", "group": "fengyun-1c-debris", "lat": 25.173282720138904, "lon": 83.84780149025762, "alt_km": 1649.1895777595264, "timestamp": "2025-12-25T09:48:52.566975+00:00", "meta": {"OBJECT_NAME": "FENGYUN 1C DEB", "OBJECT_ID": "1999-025AHH", "EPOCH": "2025-12-24T16:58:36.050016", "MEAN_MOTION": 12.94432859, "ECCENTRICITY": 0.05978034, "INCLINATION": 102.2606, "RA_OF_ASC_NODE": 88.9275, "ARG_OF_PERICENTER": 242.2258, "MEAN_ANOMALY": 111.7007, "EPHEMERIS_TYPE": 0, "CLASSIFICATION_TYPE": "U", "NORAD_CAT_ID": 30495, "ELEMENT_SET_NO": 999, "REV_AT_EPOCH": 88828, "BSTAR": 0.0036779399, "MEAN_MOTION_DOT": 2.255e-05, "MEAN_MOTION_DDOT": 0}, "tle": {"line1": "1 30495U 99025AHH 25358.70736169  .00002255  00000+0  36779-2 0  9995", "line2": "2 30495 102.2606  88.9275 0597803 242.2258 111.7007 12.94432859888284"}}, "geometry": {"type": "Point", "coordinates": [83.84780149025762, 25.173282720138904]}}, {"type": "Feature", "properties": {"norad_id": 30496, "name": "FENGYUN 1C DEB", "group": "fengyun-1c-debris", "lat": -2.0193894254837486, "lon": -92.94043948219706, "alt_km": 539.4952453909127, "timestamp": "2025-12-25T09:48:52.566985+00:00", "meta": {"OBJECT_NAME": "FENGYUN 1C DEB", "OBJECT_ID": "1999-025AHJ", "EPOCH": "2025-12-24T16:08:50.978400", "MEAN_MOTION": 14.94422877, "ECCENTRICITY": 0.01297886, "INCLINATION": 98.7832, "RA_OF_ASC_NODE": 265.9241, "ARG_OF_PERICENTER": 59.084, "MEAN_ANOMALY": 302.3061, "EPHEMERIS_TYPE": 0, "CLASSIFICATION_TYPE": "U", "NORAD_CAT_ID": 30496, "ELEMENT_SET_NO": 999, "REV_AT_EPOCH": 1322, "BSTAR": 0.00068725911, "MEAN_MOTION_DOT": 8.683e-05, "MEAN_MOTION_DDOT": 0}, "tle": {"line1": "1 30496U 99025AHJ 25358.67281225  .00008683  00000+0  68726-3 0  9999", "line2": "2 30496  98.7832 265.9241 0129788  59.0840 302.3061 14.94422877 13222"}}, "geometry": {"type": "Point", "coordinates": [-92.94043948219706, -2.0193894254837486]}}, {"type": "Feature", "properties": {"norad_id": 30498, "name": "FENGYUN 1C DEB", "group": "fengyun-1c-debris", "lat": 58.56372259645066, "lon": 35.34808982599244, "alt_km": 830.4069123875661, "timestamp": "2025-12-25T09:48:52.566994+00:00", "meta": {"OBJECT_NAME": "FENGYUN 1C DEB", "OBJECT_ID": "1999-025AHL", "EPOCH": "2025-12-24T17:03:34.505856", "MEAN_MOTION": 14.06132191, "ECCENTRICITY": 0.01035298, "INCLINATION": 99.2371, "RA_OF_ASC_NODE": 50.0755, "ARG_OF_PERICENTER": 123.2325, "MEAN_ANOMALY": 5.643, "EPHEMERIS_TYPE": 0, "CLASSIFICATION_TYPE": "U", "NORAD_CAT_ID": 30498, "ELEMENT_SET_NO": 999, "REV_AT_EPOCH": 95937, "BSTAR": 0.0014972252, "MEAN_MOTION_DOT": 2.538e-05, "MEAN_MOTION_DDOT": 0}, "tle": {"line1": "1 30498U 99025AHL 25358.71081604  .00002538  00000+0  14972-2 0  9991", "line2": "2 30498  99.2371  50.0755 0103529 123.2325   5.6430 14.06132191959376"}}, "geometry": {"type": "Point", "coordinates": [35.34808982599244, 58.56372259645066]}}, {"type": "Feature", "properties": {"norad_id": 30500, "name": "FENGYUN 1C DEB", "group": "fengyun-1c-debris", "lat": 70.51118830122104, "lon": 64.49190083221792, "alt_km": 755.296966741621, "timestamp": "2025-12-25T09:48:52.567004+00:00", "meta": {"OBJECT_NAME": "FENGYUN 1C DEB", "OBJECT_ID": "1999-025AHN", "EPOCH": "2025-12-23T12:33:13.179744", "MEAN_MOTION": 14.25307164, "ECCENTRICITY": 0.00634561, "INCLINATION": 99.072, "RA_OF_ASC_NODE": 89.3806, "ARG_OF_PERICENTER": 85.4561, "MEAN_ANOMALY": 36.0873, "EPHEMERIS_TYPE": 0, "CLASSIFICATION_TYPE": "U", "NORAD_CAT_ID": 30500, "ELEMENT_SET_NO": 999, "REV_AT_EPOCH": 96835, "BSTAR": 0.002304924, "MEAN_MOTION_DOT": 5.5e-05, "MEAN_MOTION_DDOT": 0}, "tle": {"line1": "1 30500U 99025AHN 25357.52306921  .00005500  00000+0  23049-2 0  9992", "line2": "2 30500  99.0720  89.3806 0063456  85.4561  36.0873 14.25307164968355"}}, "geometry": {"type": "Point", "coordinates": [64.49190083221792, 70.51118830122104]}}]}